idElset,classificationMarking,satNo,epoch,meanMotion,idOnOrbit,uct,eccentricity,inclination,raan,argOfPerigee,meanAnomaly,bStar,meanMotionDot,meanMotionDDot,semiMajorAxis,period,apogee,perigee,origObjectId,line1,line2,createdAt,createdBy,source,dataMode,ephemType,origNetwork,elset
419268dc-36eb-4900-a253-f34e23dddcad,U//PR-EXO-ELSETS,43175,2025-08-09T10:38:42.955884Z,1.002667414915899,43175,False,0.0001193788319165677,0.01118380329919298,11.60873135086603,117.5984897962746,301.1575241707647,0.0,0.0,0.0,42166.14795118709,1436.169141011512,42171.18169667591,42161.11420569825,43175,1 43175U 18012B   25221.44355273 +.00000000 +00000+0 +00000+0 2 99996,2 43175   0.0112  11.6087 0001193 117.5985 301.1575  1.00266741000008,2025-08-09T11:33:31.030Z,system.exo,EXO,REAL,2,OPS1,"{'NORAD_ID': 43175, 'classification': 'U', 'COSPAR_ID': '18012B', 'BC': 0.0, 'n_ddot': 0.0, 'B_star': 0.0, 'ephemeris_type': 2, 'elset_num': 9999, 'inclination': 0.0112, 'RAAN': 11.6087, 'eccentricity': 0.0001193, 'perigee': 117.5985, 'mean_anomaly': 301.1575, 'mean_motion': 1.00266741, 'rev_num': 0, 'line1': '1 43175U 18012B   25221.44355273 +.00000000 +00000+0 +00000+0 2 99996', 'line2': '2 43175   0.0112  11.6087 0001193 117.5985 301.1575  1.00266741000008', 'epoch': datetime.datetime(2025, 8, 9, 10, 38, 42, 955872)}"
ae2c789e-6998-4ead-9aa1-100cf727ef91,U//PR-EXO-ELSETS,41942,2025-08-09T07:53:17.931947Z,1.00267344707758,41942,False,0.0001075221789702651,0.03467735915648554,255.9605321789408,244.7047232941312,259.7207126826703,0.0,0.0,0.0,42165.97883446041,1436.160500905917,42170.51261238311,42161.44505653771,41942,1 41942U 17006A   25221.32867977 +.00000000 +00000+0 +00000+0 2 99994,2 41942   0.0347 255.9605 0001075 244.7047 259.7207  1.00267344000008,2025-08-09T08:36:30.702Z,system.exo,EXO,REAL,2,OPS1,"{'NORAD_ID': 41942, 'classification': 'U', 'COSPAR_ID': '17006A', 'BC': 0.0, 'n_ddot': 0.0, 'B_star': 0.0, 'ephemeris_type': 2, 'elset_num': 9999, 'inclination': 0.0347, 'RAAN': 255.9605, 'eccentricity': 0.0001075, 'perigee': 244.7047, 'mean_anomaly': 259.7207, 'mean_motion': 1.00267344, 'rev_num': 0, 'line1': '1 41942U 17006A   25221.32867977 +.00000000 +00000+0 +00000+0 2 99994', 'line2': '2 41942   0.0347 255.9605 0001075 244.7047 259.7207  1.00267344000008', 'epoch': datetime.datetime(2025, 8, 9, 7, 53, 17, 932128)}"
9ff1f665-cc17-47de-8af1-2edd43823901,U//PR-EXO-ELSETS,33377,2025-08-09T20:21:34.533648Z,2.128061557668904,33377,False,0.6423894639123793,0.3811559801883213,256.2310472873343,154.1184521302489,133.9176500619989,0.0,0.0,0.0,25531.66112209106,676.672154905795,41932.93122310367,9130.391021078447,33377,1 33377U 08045B   25221.84831636 +.00000000 +00000+0 +00000+0 2 99990,2 33377   0.3812 256.2310 6423894 154.1185 133.9177  2.12806155000000,2025-08-09T21:18:30.238Z,system.exo,EXO,REAL,2,OPS1,"{'NORAD_ID': 33377, 'classification': 'U', 'COSPAR_ID': '08045B', 'BC': 0.0, 'n_ddot': 0.0, 'B_star': 0.0, 'ephemeris_type': 2, 'elset_num': 9999, 'inclination': 0.3812, 'RAAN': 256.231, 'eccentricity': 0.6423894, 'perigee': 154.1185, 'mean_anomaly': 133.9177, 'mean_motion': 2.12806155, 'rev_num': 0, 'line1': '1 33377U 08045B   25221.84831636 +.00000000 +00000+0 +00000+0 2 99990', 'line2': '2 33377   0.3812 256.2310 6423894 154.1185 133.9177  2.12806155000000', 'epoch': datetime.datetime(2025, 8, 9, 20, 21, 34, 533504)}"
b93e0f87-cd1b-4e47-8fb4-85e1df0b7dd0,U//PR-EXO-ELSETS,29014,2025-08-09T04:05:53.480829Z,1.00144741302906,29014,False,0.001895287483571109,4.938992031333843,278.4429157383905,335.2397566742575,98.27562597695646,0.0,0.0,0.0,42200.38662087877,1437.918737684346,42280.36848544318,42120.40475631436,29014,1 29014U 77092K   25221.17075788 +.00000000 +00000+0 +00000+0 2 99995,2 29014   4.9390 278.4429 0018952 335.2398  98.2756  1.00144741000006,2025-08-09T04:39:32.349Z,system.exo,EXO,REAL,2,OPS1,"{'NORAD_ID': 29014, 'classification': 'U', 'COSPAR_ID': '77092K', 'BC': 0.0, 'n_ddot': 0.0, 'B_star': 0.0, 'ephemeris_type': 2, 'elset_num': 9999, 'inclination': 4.939, 'RAAN': 278.4429, 'eccentricity': 0.0018952, 'perigee': 335.2398, 'mean_anomaly': 98.2756, 'mean_motion': 1.00144741, 'rev_num': 0, 'line1': '1 29014U 77092K   25221.17075788 +.00000000 +00000+0 +00000+0 2 99995', 'line2': '2 29014   4.9390 278.4429 0018952 335.2398  98.2756  1.00144741000006', 'epoch': datetime.datetime(2025, 8, 9, 4, 5, 53, 480832)}"
e9184691-c386-4337-bc1f-5bc55ee482c4,U//PR-EXO-ELSETS,3432,2025-08-09T05:50:45.668265Z,1.015129358330298,3432,False,0.009345307185351861,1.367552018096365,37.32864666104556,284.0855907068083,40.0664809425921,0.0,0.0,0.0,41820.34427704269,1418.538423879825,42211.16824090882,41429.52031317656,3432,1 03432U 68081E   25221.24358412 +.00000000 +00000+0 +00000+0 2 99995,2 03432   1.3676  37.3286 0093453 284.0856  40.0665  1.01512935000001,2025-08-09T06:57:32.478Z,system.exo,EXO,REAL,2,OPS1,"{'NORAD_ID': 3432, 'classification': 'U', 'COSPAR_ID': '68081E', 'BC': 0.0, 'n_ddot': 0.0, 'B_star': 0.0, 'ephemeris_type': 2, 'elset_num': 9999, 'inclination': 1.3676, 'RAAN': 37.3286, 'eccentricity': 0.0093453, 'perigee': 284.0856, 'mean_anomaly': 40.0665, 'mean_motion': 1.01512935, 'rev_num': 0, 'line1': '1 03432U 68081E   25221.24358412 +.00000000 +00000+0 +00000+0 2 99995', 'line2': '2 03432   1.3676  37.3286 0093453 284.0856  40.0665  1.01512935000001', 'epoch': datetime.datetime(2025, 8, 9, 5, 50, 45, 667968)}"
65c15e70-cd8c-44ab-9009-53cbc8eba4f0,U//PR-EXO-ELSETS,32258,2025-08-09T09:06:26.671127Z,1.002676368104468,32258,False,9.964753187428665e-05,0.07904736611123421,89.86598814008246,111.9116123587478,210.4150184104163,0.0,0.0,0.0,42165.89694162395,1436.156317040043,42170.09866918344,42161.69521406445,32258,1 32258U 07046A   25221.37947536 +.00000000 +00000+0 +00000+0 2 99992,2 32258   0.0790  89.8660 0000996 111.9116 210.4150  1.00267636000003,2025-08-09T10:06:33.584Z,system.exo,EXO,REAL,2,OPS1,"{'NORAD_ID': 32258, 'classification': 'U', 'COSPAR_ID': '07046A', 'BC': 0.0, 'n_ddot': 0.0, 'B_star': 0.0, 'ephemeris_type': 2, 'elset_num': 9999, 'inclination': 0.079, 'RAAN': 89.866, 'eccentricity': 9.96e-05, 'perigee': 111.9116, 'mean_anomaly': 210.415, 'mean_motion': 1.00267636, 'rev_num': 0, 'line1': '1 32258U 07046A   25221.37947536 +.00000000 +00000+0 +00000+0 2 99992', 'line2': '2 32258   0.0790  89.8660 0000996 111.9116 210.4150  1.00267636000003', 'epoch': datetime.datetime(2025, 8, 9, 9, 6, 26, 671104)}"
b58327f7-006e-4d05-a86b-f8e784bd2062,U//PR-EXO-ELSETS,37344,2025-08-09T09:02:35.087914Z,1.002367970127624,37344,False,0.0004581991459360287,8.971967193523527,57.61671184231051,42.309022841158,329.413575118542,0.0,0.0,0.0,42174.54526969732,1436.598178428083,42193.86961032014,42155.22092907451,37344,1 37344U 11001A   25221.37679500 +.00000000 +00000+0 +00000+0 2 99992,2 37344   8.9720  57.6167 0004581  42.3090 329.4136  1.00236797000000,2025-08-09T10:57:30.656Z,system.exo,EXO,REAL,2,OPS1,"{'NORAD_ID': 37344, 'classification': 'U', 'COSPAR_ID': '11001A', 'BC': 0.0, 'n_ddot': 0.0, 'B_star': 0.0, 'ephemeris_type': 2, 'elset_num': 9999, 'inclination': 8.972, 'RAAN': 57.6167, 'eccentricity': 0.0004581, 'perigee': 42.309, 'mean_anomaly': 329.4136, 'mean_motion': 1.00236797, 'rev_num': 0, 'line1': '1 37344U 11001A   25221.37679500 +.00000000 +00000+0 +00000+0 2 99992', 'line2': '2 37344   8.9720  57.6167 0004581  42.3090 329.4136  1.00236797000000', 'epoch': datetime.datetime(2025, 8, 9, 9, 2, 35, 88000)}"
af9893dd-fae9-4d3b-820f-160192c323c0,U//PR-EXO-ELSETS,44204,2025-08-09T20:24:20.515890Z,1.002818763799326,44204,False,0.002416704831983471,58.25583920195034,40.86356778178771,215.1375192039361,127.6174293304152,0.0,0.0,0.0,42161.90527033639,1435.952389387239,42263.79815052884,42060.01239014394,44204,1 44204U 19023A   25221.85023745 +.00000000 +00000+0 +00000+0 2 99994,2 44204  58.2558  40.8636 0024167 215.1375 127.6174  1.00281876000001,2025-08-09T21:36:31.621Z,system.exo,EXO,REAL,2,OPS1,"{'NORAD_ID': 44204, 'classification': 'U', 'COSPAR_ID': '19023A', 'BC': 0.0, 'n_ddot': 0.0, 'B_star': 0.0, 'ephemeris_type': 2, 'elset_num': 9999, 'inclination': 58.2558, 'RAAN': 40.8636, 'eccentricity': 0.0024167, 'perigee': 215.1375, 'mean_anomaly': 127.6174, 'mean_motion': 1.00281876, 'rev_num': 0, 'line1': '1 44204U 19023A   25221.85023745 +.00000000 +00000+0 +00000+0 2 99994', 'line2': '2 44204  58.2558  40.8636 0024167 215.1375 127.6174  1.00281876000001', 'epoch': datetime.datetime(2025, 8, 9, 20, 24, 20, 515680)}"
d081f0c7-08ad-4715-b595-27847992def9,U//PR-EXO-ELSETS,40887,2025-08-09T01:24:10.632633Z,1.002680902996596,40887,False,0.005502157143506369,3.756567182593061,39.47360924860021,4.533673293371629,9.875624784440278,0.0,0.0,0.0,42165.76980384252,1436.149821639606,42397.77249538018,41933.76711230486,40887,1 40887U 15044A   25221.05845640 +.00000000 +00000+0 +00000+0 2 99994,2 40887   3.7566  39.4736 0055021   4.5337   9.8756  1.00268090000004,2025-08-09T04:12:30.913Z,system.exo,EXO,REAL,2,OPS1,"{'NORAD_ID': 40887, 'classification': 'U', 'COSPAR_ID': '15044A', 'BC': 0.0, 'n_ddot': 0.0, 'B_star': 0.0, 'ephemeris_type': 2, 'elset_num': 9999, 'inclination': 3.7566, 'RAAN': 39.4736, 'eccentricity': 0.0055021, 'perigee': 4.5337, 'mean_anomaly': 9.8756, 'mean_motion': 1.0026809, 'rev_num': 0, 'line1': '1 40887U 15044A   25221.05845640 +.00000000 +00000+0 +00000+0 2 99994', 'line2': '2 40887   3.7566  39.4736 0055021   4.5337   9.8756  1.00268090000004', 'epoch': datetime.datetime(2025, 8, 9, 1, 24, 10, 632960)}"
